LEMUR-2-ROUNDTRIPPER    
1 62711U 25009DG  26201.75713145  .00004512  00000+0  32850-3 0  9999
2 62711  97.7240 284.3978 0004434  53.7790 306.3845 15.04280173 82678
LEMUR-2-MYNAMEISJEFF    
1 62712U 25009DH  26201.95520839  .00005608  00000+0  40720-3 0  9990
2 62712  97.7287 284.9972 0004332  86.1884 273.9837 15.04275983 82708
LEMUR-2-LEIA-PHILIP     
1 63246U 25052AN  26201.95035650  .00000395  00000+0  38912-4 0  9992
2 63246  97.6789  93.3277 0005050 107.6890 252.4884 14.97394872 73727
LEMUR-2-LIA-MARTIN      
1 63248U 25052AQ  26201.94242238  .00002021  00000+0  17588-3 0  9998
2 63248  97.6848  93.8486 0004896  75.7927 284.3839 14.98050706 73736
LEMUR-2-DELOITTE-1      
1 63259U 25052BB  26201.25575784  .00002458  00000+0  21412-3 0  9994
2 63259  97.6886  93.5026 0002529  57.2347 302.9118 14.97807195 73647
LEMUR-2-EMERSONROSE     
1 63261U 25052BD  26201.26484667  .00002290  00000+0  19231-3 0  9997
2 63261  97.6885  94.1364 0002432  47.4222 312.7206 14.99315888 73694
LEMUR-2-MARACHE-FRAN    
1 63262U 25052BE  26201.41750040  .00001851  00000+0  15230-3 0  9993
2 63262  97.6815  94.6586 0005815 231.5987 128.4715 15.00333801 73742
LEMUR-2-THEFALCONER     
1 63264U 25052BG  26201.95513564  .00001744  00000+0  15431-3 0  9996
2 63264  97.6813  93.7751 0000767 216.0901 144.0269 14.97579793 73746
LEMUR-2-UNTITLED-SC     
1 63351U 25061A   26201.80503112  .00002247  00000+0  12808-3 0  9999
2 63351  97.5661 176.9302 0019719 144.4715 215.7834 15.13669097 72674
LEMUR-2-ESPERANZA       
1 63352U 25061B   26201.91217600  .00002127  00000+0  12113-3 0  9992
2 63352  97.5668 177.1382 0019356 143.5155 216.7400 15.13775558 72690
LEMUR-2-KREMPEL-BRO2    
1 63353U 25061C   26201.92953666  .00002332  00000+0  13083-3 0  9998
2 63353  97.5714 177.7317 0020468 136.4327 223.8526 15.14203412 72712
LEMUR-2-THERMORAPTOR    
1 63354U 25061D   26201.90977973  .00002286  00000+0  12802-3 0  9990
2 63354  97.5720 177.7943 0020187 135.4604 224.8255 15.14286443 72715
LEMUR-2-NEUROSPICY      
1 63355U 25061E   26201.87884645  .00002310  00000+0  12904-3 0  9991
2 63355  97.5648 177.3637 0017959 138.3390 221.9213 15.14404805 72714
LEMUR-2-TILLINFINITY    
1 63356U 25061F   26201.90112556  .00002527  00000+0  13843-3 0  9994
2 63356  97.5632 177.6998 0019489 127.4100 232.8910 15.14989431 72740
LEMUR-2-KREMPEL-BRO1    
1 63357U 25061G   26201.87890455  .00002321  00000+0  12808-3 0  9994
2 63357  97.5634 177.5844 0020100 128.7862 231.5169 15.14796156 72734
LEMUR-2-LANGER2SPACE    
1 63358U 25061H   26201.91217913  .00002310  00000+0  12869-3 0  9997
2 63358  97.5638 177.4179 0017891 136.6750 223.5892 15.14490073 72728
LEMUR-2-BALTO           
1 63395U 25052BH  26201.93520365  .00002977  00000+0  24163-3 0  9997
2 63395  97.6918  95.1660 0004987 302.7684  57.3058 15.00393568 73821
LEMUR-2-KRISH           
1 64561U 25135AK  26201.84398577  .00002994  00000+0  26886-3 0  9996
2 64561  97.7761 316.4983 0001130 108.4147 251.7198 14.96473292 58952
LEMUR-2-HUBBLE-4        
1 64565U 25135AP  26201.83531106  .00000625  00000+0  64473-4 0  9990
2 64565  97.7723 315.3537 0003094 149.0927 211.0475 14.93694653 58898
LEMUR-2-SEJONG-2        
1 64586U 25135BL  26201.93011383  .00003397  00000+0  30067-3 0  9994
2 64586  97.7709 316.7295 0004306 192.0048 168.1072 14.96941763 58996
LEMUR-2-HUBBLE-5        
1 64840U 25135BT  26201.84215953  .00000718  00000+0  72278-4 0  9991
2 64840  97.7742 316.0356 0004767 212.8278 147.2647 14.94221604 58937
LEMUR-2-KARENDARRELL    
1 64841U 25135BU  26201.86468056  .00005189  00000+0  41543-3 0  9995
2 64841  97.7720 318.0329 0012895  87.6727 272.5973 15.00548023 59068
LEMUR-2-LUCILLE-ROSE    
1 65403U 25135BV  26201.77151082  .00004100  00000+0  32920-3 0  9999
2 65403  97.7695 317.9739 0015462 172.4028 187.7433 15.00528367 53675
LEMUR-2-AFFIE-WAUWIE    
1 66295U 25248C   26201.27165169  .00012608  00000+0  45736-3 0  9991
2 66295  45.3906 295.5651 0009267 278.2221  81.7618 15.28387854 39653
OTTER SDM               
1 66678U 25276N   26201.75857899  .00003656  00000+0  17245-3 0  9995
2 66678  97.4196 274.6830 0004651 228.6330 131.4505 15.20094120 35518
LEMUR-2-STAS-GORBUK     
1 66686U 25276W   26201.71563070  .00002985  00000+0  14302-3 0  9990
2 66686  97.4229 274.6917 0004003 222.7584 137.3340 15.19690351 35504
LEMUR-2-TEODOR          
1 66768U 25276DG  26201.92563354  .00003775  00000+0  17150-3 0  9991
2 66768  97.4132 275.1774 0002100  83.2990 276.8485 15.21374071 35579
LEMUR-2-LAILA           
1 66776U 25276DQ  26201.76305866  .00003364  00000+0  15215-3 0  9998
2 66776  97.4156 275.1595 0002837  86.3974 273.7586 15.21598326 35555
LEMUR-2-CELIJO-SB-PK    
1 66781U 25276DW  26201.92064935  .00004015  00000+0  32457-3 0  9992
2 66781  97.5182 271.5840 0006668  50.4317 309.7496 15.00322329 27683
